NUSAT-1 (FRESCO)        
1 41557U 16033B   22241.43346160  .00007000  00000+0  20080-3 0  9992
2 41557  97.3906 339.3379 0011663 113.7473 316.7101 15.36130287348581
BEESAT-4                
1 41619U 16040W   22241.07537705  .00010913  00000+0  34696-3 0  9991
2 41619  97.2103 289.8246 0008491 205.2525 154.8303 15.32747902331840
CAS-2T & KS-1Q          
1 41847U 16066G   22241.16170352  .00000268  00000+0  50559-4 0  9992
2 41847  98.5456 305.7342 0363252 352.5686   7.0202 14.38702804304806
NAYIF-1 (EO-88)         
1 42017U 17008BX  22241.15536868  .00010383  00000+0  29311-3 0  9996
2 42017  97.2630 306.2926 0004064   5.7496 354.3794 15.36552140308239
ZHUHAI-1 02 (CAS-4B)    
1 42759U 17034B   22241.51286132  .00001350  00000+0  89373-4 0  9993
2 42759  43.0186 289.8667 0009271  20.7795 124.4277 15.12319085287410
ZHUHAI-1 01 (CAS-4A)    
1 42761U 17034D   22241.40778091  .00001370  00000+0  90274-4 0  9998
2 42761  43.0183 289.1811 0009663  21.7624  98.5394 15.12403413287400
MAX VALIER SAT          
1 42778U 17036P   22241.43158395  .00005588  00000+0  20713-3 0  9995
2 42778  97.1994 280.0505 0012328  71.9791 288.2791 15.27941621288046
RADFXSAT (FOX-1B)       
1 43017U 17073E   22241.51174289  .00002697  00000+0  20624-3 0  9991
2 43017  97.6644 132.7032 0245878 308.7835  49.1642 14.81879031257933
FOX-1D (AO-92)          
1 43137U 18004AC  22241.15067749  .00006455  00000+0  22115-3 0  9994
2 43137  97.3645 315.6945 0009103 103.6045 256.6210 15.30510021257463
DIWATA-2B               
1 43678U 18084H   22241.53983380  .00000610  00000+0  65555-4 0  9995
2 43678  97.9802  15.7048 0010808  50.3190 309.9020 14.92270175208758
ES'HAIL 2               
1 43700U 18090A   22241.22619012  .00000144  00000+0  00000+0 0  9993
2 43700   0.0254 143.6538 0001949  49.8259 251.1332  1.00270001 13751
FOX-1CLIFF (AO-95)      
1 43770U 18099N   22241.13403306  .00001842  00000+0  16593-3 0  9990
2 43770  97.6159 305.5898 0014943  38.2973 321.9307 14.96715351203889
ITASAT 1                
1 43786U 18099AE  22241.52226556  .00001419  00000+0  12862-3 0  9995
2 43786  97.6180 306.9250 0015170  29.1928 331.0139 14.96820376203989
JY1SAT (JO-97)          
1 43803U 18099AX  22241.18020355  .00001411  00000+0  12617-3 0  9996
2 43803  97.6139 306.3698 0014885  28.4112 331.7919 14.97375423203951
UWE-4                   
1 43880U 18111E   22241.26088298  .00001273  00000+0  11132-3 0  9992
2 43880  97.6598 146.2936 0012764  76.7246 283.5399 14.98458764200605
NEXUS (FO-99)           
1 43937U 19003F   22241.54633913  .00008649  00000+0  27973-3 0  9991
2 43937  97.1256 272.1088 0017981 249.2633 110.6682 15.32137645201162
PSAT2 (NO-104)          
1 44354U 19036R   22241.46908588  .00057601 -52389-5  44981-3 0  9999
2 44354  28.5235  29.4417 0207521  78.2140 284.1660 15.46542004175970
JAISAT-1                
1 44419U 19038F   22241.48346422  .00005340  00000+0  26329-3 0  9993
2 44419  97.6420 212.2670 0017108 235.0730 124.8897 15.18245106174137
DUCHIFAT-3              
1 44854U 19089C   22241.46802544  .00001627  00000+0  12969-3 0  9991
2 44854  36.9677  27.3528 0006922  87.6098 272.5450 15.01452348148910
CAS-6 (TIANQIN 1)       
1 44881U 19093C   22241.44161363  .00000177  00000+0  29162-4 0  9994
2 44881  97.8906 319.5967 0013912 312.8903  47.1141 14.81793130145586
RS-44 & BREEZE-KM R/B   
1 44909U 19096E   22241.36987977  .00000027  00000+0  55889-4 0  9995
2 44909  82.5244 181.8383 0217857 148.9831 212.4348 12.79714427124835
ORBITAL FACTORY 2 (OF-2)
1 45113U 19071C   22241.49242467  .00022315  00000+0  41694-3 0  9990
2 45113  51.6369  59.1163 0008723  84.8910 275.3074 15.48629466144683
HUSKYSAT-1 (HO-107)     
1 45119U 19071J   22241.55123139  .00018885  00000+0  37111-3 0  9993
2 45119  51.6371  59.4782 0008718  80.4835 279.7138 15.47288312144672
BY70-2                  
1 45857U 20042B   22241.50200002  .00002664  00000+0  35454-3 0  9998
2 45857  97.9540 317.6747 0009325 232.9605 127.0766 14.80512640116262
SALSAT                  
1 46495U 20068K   22241.44924433  .00001886  00000+0  13790-3 0  9993
2 46495  97.7325 182.7952 0017273  34.9599 325.2757 15.04758427105163
BY70-3                  
1 46839U 20079N   22241.45352181  .00014251  00000+0  30723-3 0  9998
2 46839  97.1938 312.7086 0006228  73.4143  52.4465 15.44663813101500
RADFXSAT-2 (AO-109)     
1 47311U 21002C   22241.27415429  .00004926  00000+0  19737-3 0  9996
2 47311  60.6838  87.9180 0029170  28.4803 331.7871 15.26239869 89576
UVSQ-SAT                
1 47438U 21006AB  22241.14760058  .00003355  00000+0  17602-3 0  9991
2 47438  97.4311 298.6757 0012266  30.5826 329.6120 15.16366371 88297
DIY-1 (ARDUIQUBE)       
1 47963U 21022AH  22241.15977800  .00008600  00000+0  45926-3 0  9996
2 47963  97.5235 141.7436 0014139 237.7307 122.2556 15.15276761 77957
XW-3 (CAS-9)            
1 50466U 21131B   22241.62366446  .00000022  00000+0  21872-4 0  9994
2 50466  98.5775 318.8331 0003326 294.5867  65.4974 14.38517107 35433
TEVEL-3                 
1 50988U 22002E   22241.55969448  .00003040  00000+0  16539-3 0  9990
2 50988  97.4772 307.3401 0010091 162.2523 303.9609 15.15172782 34486
TEVEL-8                 
1 50989U 22002F   22241.50465600  .00003193  00000+0  17377-3 0  9997
2 50989  97.4784 307.3118 0010310 161.2707 323.3447 15.15120696 34474
TEVEL-5                 
1 50998U 22002Q   22241.55742888  .00003123  00000+0  16742-3 0  9996
2 50998  97.4763 307.4729 0011699 159.2851 308.3313 15.15665915 34493
TEVEL-6                 
1 50999U 22002R   22241.55688094  .00003134  00000+0  16795-3 0  9995
2 50999  97.4765 307.4714 0011640 158.7309 308.9180 15.15670524 34498
TEVEL-1                 
1 51013U 22002AF  22241.43398240  .00003118  00000+0  16967-3 0  9994
2 51013  97.4769 307.1944 0009946 163.0165 319.3680 15.15146602 34460
TEVEL-7                 
1 51062U 22002CG  22241.44056515  .00003245  00000+0  17657-3 0  9993
2 51062  97.4779 307.2338 0010153 161.1104 324.6566 15.15112541 34464
TEVEL-4                 
1 51063U 22002CH  22241.50728839  .00003269  00000+0  17791-3 0  9991
2 51063  97.4778 307.2966 0010218 161.1207 323.5684 15.15103763 34473
TEVEL-2                 
1 51069U 22002CP  22241.56098242  .00003097  00000+0  16844-3 0  9998
2 51069  97.4767 307.3267 0010144 162.2250 303.5765 15.15165909 34489
YUZGU 9 (RS3S)          
1 53308U 98067TT  22241.52312621  .00033428  00000+0  53945-3 0  9990
2 53308  51.6424 332.9281 0001145 142.4859 217.6211 15.52578200  6107
YUZGU 7 (RS1S)          
1 53309U 98067TU  22241.52205769  .00033953  00000+0  54645-3 0  9996
2 53309  51.6422 332.9200 0001485 182.2540 177.8444 15.52644980  6051
YUZGU 11 (RS5S)         
1 53310U 98067TV  22241.52269665  .00033399  00000+0  53924-3 0  9996
2 53310  51.6426 332.9258 0001241 184.4524 175.6455 15.52565496  6081
TSIOLKOVSKY-RYAZAN 1 (*)
1 53311U 98067TW  22241.51976376  .00033115  00000+0  53063-3 0  9990
2 53311  51.6421 332.9037 0001075 120.3230 239.7866 15.52780169  6107
YUZGU TX (RS9S)         
1 53312U 98067TX  22241.52073350  .00032632  00000+0  52450-3 0  9994
2 53312  51.6426 332.9106 0001687 188.1578 171.9385 15.52701518  6043
YUZGU TY (RS12S)        
1 53313U 98067TY  22241.51963347  .00032253  00000+0  51778-3 0  9999
2 53313  51.6426 332.9040 0001261 201.1302 158.9636 15.52741471  6091
YUZGU 10 (RS4S)         
1 53321U 98067TZ  22241.52361349  .00034062  00000+0  54955-3 0  9993
2 53321  51.6428 332.9329 0001115 160.6036 199.4997 15.52574993  6096
RS29S (SXC3-2110 CYCLO*)
1 53373U 22096D   22241.54254721  .00004009  00000+0  16539-3 0  9990
2 53373  97.4359 142.8586 0003629  98.6430  24.1860 15.24626481  3085
RS32S (SXC3-212 MONITO*)
1 53374U 22096E   22241.46303207  .00004095  00000+0  16833-3 0  9998
2 53374  97.4349 142.7824 0003733  94.8428 319.4701 15.24733006  3075
RS34S (SXC3-218 KUZBAS*)
1 53375U 22096F   22241.46903705  .00003676  00000+0  15141-3 0  9993
2 53375  97.4346 142.7899 0003621  91.1721 357.1090 15.24733027  3070
RS23S (SXC3-21 UTMN)    
1 53376U 22096G   22241.66544205  .00003626  00000+0  14922-3 0  9993
2 53376  97.4354 142.9848 0003761  88.5990 359.7778 15.24775099  3109
RS28S (SXC3-214 MIET-A*)
1 53377U 22096H   22241.40702473  .00003511  00000+0  14447-3 0  9994
2 53377  97.4356 142.7290 0003667  91.2638  21.5632 15.24797769  3062
RS26S (KAI-1)           
1 53378U 22096J   22241.46734731  .00003063  00000+0  12630-3 0  9997
2 53378  97.4352 142.7908 0003665  86.8357 359.4513 15.24822862  3076
RS19S (SXC3-219 ISOI)   
1 53381U 22096M   22241.46655927  .00003698  00000+0  15002-3 0  9990
2 53381  97.4350 142.8037 0005375  40.3914  70.9375 15.25238621  3072
RS21S (CUBESX-HSE-2)    
1 53383U 22096P   22241.40014234  .00003391  00000+0  13756-3 0  9990
2 53383  97.4351 142.7385 0005499  40.3140  71.0378 15.25297343  3068
RS30S (SXC3-217 SIREN)  
1 53384U 22096Q   22241.65822112  .00003208  00000+0  13020-3 0  9991
2 53384  97.4353 142.9955 0005432  40.2732  48.8831 15.25317313  3100
RS20S (GEOSCAN-EDELVEIS)
1 53385U 22096R   22241.39779065  .00004367  00000+0  17529-3 0  9996
2 53385  97.4346 142.7414 0005989  38.1977  73.0016 15.25492938  3095
RS33S (SXC3-215 VIZARD) 
1 53386U 22096S   22241.52845200  .00005266  00000+0  20917-3 0  9991
2 53386  97.4339 142.8772 0006786  37.1500  87.2202 15.25738591  3107
